ONEWEB-0593             
1 54659U 22166T   25306.47316039 -.00002714  00000+0 -66062-2 0  9992
2 54659  87.9173 289.2086 0000886 114.5851 245.5375 13.21804750141590
ONEWEB-0594             
1 54660U 22166U   25306.49291125 -.00001688  00000+0 -41192-2 0  9990
2 54660  87.9168 289.2238 0002026  89.4146 270.7220 13.21836127141615
ONEWEB-0595             
1 54661U 22166V   25306.46985486 -.00000009  00000+0 -52989-4 0  9992
2 54661  87.9170 289.2021 0002074  85.0702 275.0669 13.21824447141585
ONEWEB-0596             
1 54662U 22166W   25306.44354193  .00000063  00000+0  12154-3 0  9993
2 54662  87.9173 289.2234 0001946  84.5430 275.5926 13.21826944141589
ONEWEB-0597             
1 54663U 22166X   25306.42544490 -.00000004  00000+0 -41905-4 0  9997
2 54663  87.9169 289.2316 0001741  86.6154 273.5179 13.21827434141588
ONEWEB-0600             
1 54664U 22166Y   25306.48303685  .00000035  00000+0  54368-4 0  9992
2 54664  87.9173 289.2109 0001804  90.5342 269.5999 13.21826891141566
ONEWEB-0601             
1 54665U 22166Z   25306.47480806  .00000031  00000+0  44364-4 0  9994
2 54665  87.9171 289.2305 0001595  86.3955 273.7361 13.21827570141759
ONEWEB-0602             
1 54666U 22166AA  25306.43940823  .00000026  00000+0  30620-4 0  9995
2 54666  87.9173 289.2408 0001791  98.9132 261.2205 13.21825936141595
ONEWEB-0603             
1 54667U 22166AB  25306.44519057 -.00000039  00000+0 -12587-3 0  9995
2 54667  87.9183 289.1758 0001780  88.9634 271.1704 13.21826361141528
ONEWEB-0604             
1 54668U 22166AC  25306.43364433  .00000009  00000+0 -91430-5 0  9993
2 54668  87.9170 289.2015 0001716  91.9912 268.1418 13.21824491141489
ONEWEB-0605             
1 54669U 22166AD  25306.42708457 -.00000032  00000+0 -10990-3 0  9998
2 54669  87.9170 289.2315 0001433  71.1228 289.0061 13.21827001141553
ONEWEB-0606             
1 54670U 22166AE  25306.44847300  .00000179  00000+0  40098-3 0  9995
2 54670  87.9173 289.2375 0002111  86.1991 273.9385 13.21827580141611
ONEWEB-0607             
1 54671U 22166AF  25306.49126269  .00000093  00000+0  19383-3 0  9993
2 54671  87.9170 289.1932 0001715  88.0090 272.1240 13.21826951141596
ONEWEB-0608             
1 54672U 22166AG  25306.49783902 -.00000030  00000+0 -10510-3 0  9993
2 54672  87.9179 289.1763 0001397  82.2530 277.8762 13.21827531141607
ONEWEB-0610             
1 54673U 22166AH  25306.47808779  .00000044  00000+0  74442-4 0  9990
2 54673  87.9172 289.2165 0001291  83.9102 276.2179 13.21825961141503
ONEWEB-0611             
1 54674U 22166AJ  25306.47149589  .00000050  00000+0  90126-4 0  9992
2 54674  87.9171 289.2135 0002130  90.0256 270.1122 13.21824993141495
ONEWEB-0612             
1 54675U 22166AK  25306.48467551  .00000011  00000+0 -52030-5 0  9997
2 54675  87.9172 289.1896 0001739  86.9990 273.1342 13.21826375141485
