[{"OBJECT_NAME":"ONEWEB-0593","OBJECT_ID":"2022-166T","EPOCH":"2025-11-02T11:21:21.057696","MEAN_MOTION":13.2180475,"ECCENTRICITY":8.86e-5,"INCLINATION":87.9173,"RA_OF_ASC_NODE":289.2086,"ARG_OF_PERICENTER":114.5851,"MEAN_ANOMALY":245.5375,"EPHEMERIS_TYPE":0,"CLASSIFICATION_TYPE":"U","NORAD_CAT_ID":54659,"ELEMENT_SET_NO":999,"REV_AT_EPOCH":14159,"BSTAR":-0.0066062,"MEAN_MOTION_DOT":-2.714e-5,"MEAN_MOTION_DDOT":0},{"OBJECT_NAME":"ONEWEB-0594","OBJECT_ID":"2022-166U","EPOCH":"2025-11-02T11:49:47.532000","MEAN_MOTION":13.21836127,"ECCENTRICITY":0.0002026,"INCLINATION":87.9168,"RA_OF_ASC_NODE":289.2238,"ARG_OF_PERICENTER":89.4146,"MEAN_ANOMALY":270.722,"EPHEMERIS_TYPE":0,"CLASSIFICATION_TYPE":"U","NORAD_CAT_ID":54660,"ELEMENT_SET_NO":999,"REV_AT_EPOCH":14161,"BSTAR":-0.0041192,"MEAN_MOTION_DOT":-1.688e-5,"MEAN_MOTION_DDOT":0},{"OBJECT_NAME":"ONEWEB-0595","OBJECT_ID":"2022-166V","EPOCH":"2025-11-02T11:16:35.459904","MEAN_MOTION":13.21824447,"ECCENTRICITY":0.0002074,"INCLINATION":87.917,"RA_OF_ASC_NODE":289.2021,"ARG_OF_PERICENTER":85.0702,"MEAN_ANOMALY":275.0669,"EPHEMERIS_TYPE":0,"CLASSIFICATION_TYPE":"U","NORAD_CAT_ID":54661,"ELEMENT_SET_NO":999,"REV_AT_EPOCH":14158,"BSTAR":-5.2989e-5,"MEAN_MOTION_DOT":-9.0e-8,"MEAN_MOTION_DDOT":0},{"OBJECT_NAME":"ONEWEB-0596","OBJECT_ID":"2022-166W","EPOCH":"2025-11-02T10:38:42.022752","MEAN_MOTION":13.21826944,"ECCENTRICITY":0.0001946,"INCLINATION":87.9173,"RA_OF_ASC_NODE":289.2234,"ARG_OF_PERICENTER":84.543,"MEAN_ANOMALY":275.5926,"EPHEMERIS_TYPE":0,"CLASSIFICATION_TYPE":"U","NORAD_CAT_ID":54662,"ELEMENT_SET_NO":999,"REV_AT_EPOCH":14158,"BSTAR":0.00012154,"MEAN_MOTION_DOT":6.3e-7,"MEAN_MOTION_DDOT":0},{"OBJECT_NAME":"ONEWEB-0597","OBJECT_ID":"2022-166X","EPOCH":"2025-11-02T10:12:38.439360","MEAN_MOTION":13.21827434,"ECCENTRICITY":0.0001741,"INCLINATION":87.9169,"RA_OF_ASC_NODE":289.2316,"ARG_OF_PERICENTER":86.6154,"MEAN_ANOMALY":273.5179,"EPHEMERIS_TYPE":0,"CLASSIFICATION_TYPE":"U","NORAD_CAT_ID":54663,"ELEMENT_SET_NO":999,"REV_AT_EPOCH":14158,"BSTAR":-4.1905e-5,"MEAN_MOTION_DOT":-4.0e-8,"MEAN_MOTION_DDOT":0},{"OBJECT_NAME":"ONEWEB-0600","OBJECT_ID":"2022-166Y","EPOCH":"2025-11-02T11:35:34.383840","MEAN_MOTION":13.21826891,"ECCENTRICITY":0.0001804,"INCLINATION":87.9173,"RA_OF_ASC_NODE":289.2109,"ARG_OF_PERICENTER":90.5342,"MEAN_ANOMALY":269.5999,"EPHEMERIS_TYPE":0,"CLASSIFICATION_TYPE":"U","NORAD_CAT_ID":54664,"ELEMENT_SET_NO":999,"REV_AT_EPOCH":14156,"BSTAR":5.4368e-5,"MEAN_MOTION_DOT":3.5e-7,"MEAN_MOTION_DDOT":0},{"OBJECT_NAME":"ONEWEB-0601","OBJECT_ID":"2022-166Z","EPOCH":"2025-11-02T11:23:43.416384","MEAN_MOTION":13.2182757,"ECCENTRICITY":0.0001595,"INCLINATION":87.9171,"RA_OF_ASC_NODE":289.2305,"ARG_OF_PERICENTER":86.3955,"MEAN_ANOMALY":273.7361,"EPHEMERIS_TYPE":0,"CLASSIFICATION_TYPE":"U","NORAD_CAT_ID":54665,"ELEMENT_SET_NO":999,"REV_AT_EPOCH":14175,"BSTAR":4.4364e-5,"MEAN_MOTION_DOT":3.1e-7,"MEAN_MOTION_DDOT":0},{"OBJECT_NAME":"ONEWEB-0602","OBJECT_ID":"2022-166AA","EPOCH":"2025-11-02T10:32:44.871072","MEAN_MOTION":13.21825936,"ECCENTRICITY":0.0001791,"INCLINATION":87.9173,"RA_OF_ASC_NODE":289.2408,"ARG_OF_PERICENTER":98.9132,"MEAN_ANOMALY":261.2205,"EPHEMERIS_TYPE":0,"CLASSIFICATION_TYPE":"U","NORAD_CAT_ID":54666,"ELEMENT_SET_NO":999,"REV_AT_EPOCH":14159,"BSTAR":3.062e-5,"MEAN_MOTION_DOT":2.6e-7,"MEAN_MOTION_DDOT":0},{"OBJECT_NAME":"ONEWEB-0603","OBJECT_ID":"2022-166AB","EPOCH":"2025-11-02T10:41:04.465248","MEAN_MOTION":13.21826361,"ECCENTRICITY":0.000178,"INCLINATION":87.9183,"RA_OF_ASC_NODE":289.1758,"ARG_OF_PERICENTER":88.9634,"MEAN_ANOMALY":271.1704,"EPHEMERIS_TYPE":0,"CLASSIFICATION_TYPE":"U","NORAD_CAT_ID":54667,"ELEMENT_SET_NO":999,"REV_AT_EPOCH":14152,"BSTAR":-0.00012587,"MEAN_MOTION_DOT":-3.9e-7,"MEAN_MOTION_DDOT":0},{"OBJECT_NAME":"ONEWEB-0604","OBJECT_ID":"2022-166AC","EPOCH":"2025-11-02T10:24:26.870112","MEAN_MOTION":13.21824491,"ECCENTRICITY":0.0001716,"INCLINATION":87.917,"RA_OF_ASC_NODE":289.2015,"ARG_OF_PERICENTER":91.9912,"MEAN_ANOMALY":268.1418,"EPHEMERIS_TYPE":0,"CLASSIFICATION_TYPE":"U","NORAD_CAT_ID":54668,"ELEMENT_SET_NO":999,"REV_AT_EPOCH":14148,"BSTAR":-9.143e-6,"MEAN_MOTION_DOT":9.0e-8,"MEAN_MOTION_DDOT":0},{"OBJECT_NAME":"ONEWEB-0605","OBJECT_ID":"2022-166AD","EPOCH":"2025-11-02T10:15:00.106848","MEAN_MOTION":13.21827001,"ECCENTRICITY":0.0001433,"INCLINATION":87.917,"RA_OF_ASC_NODE":289.2315,"ARG_OF_PERICENTER":71.1228,"MEAN_ANOMALY":289.0061,"EPHEMERIS_TYPE":0,"CLASSIFICATION_TYPE":"U","NORAD_CAT_ID":54669,"ELEMENT_SET_NO":999,"REV_AT_EPOCH":14155,"BSTAR":-0.0001099,"MEAN_MOTION_DOT":-3.2e-7,"MEAN_MOTION_DDOT":0},{"OBJECT_NAME":"ONEWEB-0606","OBJECT_ID":"2022-166AE","EPOCH":"2025-11-02T10:45:48.067200","MEAN_MOTION":13.2182758,"ECCENTRICITY":0.0002111,"INCLINATION":87.9173,"RA_OF_ASC_NODE":289.2375,"ARG_OF_PERICENTER":86.1991,"MEAN_ANOMALY":273.9385,"EPHEMERIS_TYPE":0,"CLASSIFICATION_TYPE":"U","NORAD_CAT_ID":54670,"ELEMENT_SET_NO":999,"REV_AT_EPOCH":14161,"BSTAR":0.00040098,"MEAN_MOTION_DOT":1.79e-6,"MEAN_MOTION_DDOT":0},{"OBJECT_NAME":"ONEWEB-0607","OBJECT_ID":"2022-166AF","EPOCH":"2025-11-02T11:47:25.096416","MEAN_MOTION":13.21826951,"ECCENTRICITY":0.0001715,"INCLINATION":87.917,"RA_OF_ASC_NODE":289.1932,"ARG_OF_PERICENTER":88.009,"MEAN_ANOMALY":272.124,"EPHEMERIS_TYPE":0,"CLASSIFICATION_TYPE":"U","NORAD_CAT_ID":54671,"ELEMENT_SET_NO":999,"REV_AT_EPOCH":14159,"BSTAR":0.00019383,"MEAN_MOTION_DOT":9.3e-7,"MEAN_MOTION_DDOT":0},{"OBJECT_NAME":"ONEWEB-0608","OBJECT_ID":"2022-166AG","EPOCH":"2025-11-02T11:56:53.291328","MEAN_MOTION":13.21827531,"ECCENTRICITY":0.0001397,"INCLINATION":87.9179,"RA_OF_ASC_NODE":289.1763,"ARG_OF_PERICENTER":82.253,"MEAN_ANOMALY":277.8762,"EPHEMERIS_TYPE":0,"CLASSIFICATION_TYPE":"U","NORAD_CAT_ID":54672,"ELEMENT_SET_NO":999,"REV_AT_EPOCH":14160,"BSTAR":-0.0001051,"MEAN_MOTION_DOT":-3.0e-7,"MEAN_MOTION_DDOT":0},{"OBJECT_NAME":"ONEWEB-0610","OBJECT_ID":"2022-166AH","EPOCH":"2025-11-02T11:28:26.785056","MEAN_MOTION":13.21825961,"ECCENTRICITY":0.0001291,"INCLINATION":87.9172,"RA_OF_ASC_NODE":289.2165,"ARG_OF_PERICENTER":83.9102,"MEAN_ANOMALY":276.2179,"EPHEMERIS_TYPE":0,"CLASSIFICATION_TYPE":"U","NORAD_CAT_ID":54673,"ELEMENT_SET_NO":999,"REV_AT_EPOCH":14150,"BSTAR":7.4442e-5,"MEAN_MOTION_DOT":4.4e-7,"MEAN_MOTION_DDOT":0},{"OBJECT_NAME":"ONEWEB-0611","OBJECT_ID":"2022-166AJ","EPOCH":"2025-11-02T11:18:57.244896","MEAN_MOTION":13.21824993,"ECCENTRICITY":0.000213,"INCLINATION":87.9171,"RA_OF_ASC_NODE":289.2135,"ARG_OF_PERICENTER":90.0256,"MEAN_ANOMALY":270.1122,"EPHEMERIS_TYPE":0,"CLASSIFICATION_TYPE":"U","NORAD_CAT_ID":54674,"ELEMENT_SET_NO":999,"REV_AT_EPOCH":14149,"BSTAR":9.0126e-5,"MEAN_MOTION_DOT":5.0e-7,"MEAN_MOTION_DDOT":0},{"OBJECT_NAME":"ONEWEB-0612","OBJECT_ID":"2022-166AK","EPOCH":"2025-11-02T11:37:55.964064","MEAN_MOTION":13.21826375,"ECCENTRICITY":0.0001739,"INCLINATION":87.9172,"RA_OF_ASC_NODE":289.1896,"ARG_OF_PERICENTER":86.999,"MEAN_ANOMALY":273.1342,"EPHEMERIS_TYPE":0,"CLASSIFICATION_TYPE":"U","NORAD_CAT_ID":54675,"ELEMENT_SET_NO":999,"REV_AT_EPOCH":14148,"BSTAR":-5.203e-6,"MEAN_MOTION_DOT":1.1e-7,"MEAN_MOTION_DDOT":0}]
